{"type":"FeatureCollection", "features": [
{"type":"Feature","geometry":{"type":"Polygon","coordinates":[[[88.756,27.149],[88.849,27.869],[88.621,28.092],[88.109,27.933],[88.001,27.248],[88.357,27.085],[88.756,27.149]]]},"properties":{"name":"Sikkim","slug":"sikkim","type":"State"}},
{"type":"Feature","geometry":{"type":"Polygon","coordinates":[[[77.446,15.953],[78.087,15.833],[78.5,16.094],[78.734,16.03],[79.233,16.331],[79.266,16.57],[79.882,16.703],[80.22,17.033],[80.506,16.792],[80.893,17.156],[81.47,17.42],[81.759,17.909],[81.394,17.807],[80.938,18.086],[80.27,18.714],[79.96,18.867],[79.931,19.483],[79.735,19.603],[79.198,19.462],[78.848,19.725],[78.384,19.685],[77.551,18.308],[77.62,17.926],[77.412,17.631],[77.446,15.953]]]},"properties":{"name":"Telangana","slug":"telangana","type":"State"}},
{"type":"Feature","geometry":{"type":"Polygon","coordinates":[[[78.39,32.527],[78.919,32.358],[79.499,32.73],[78.802,33.5],[78.753,34.088],[78.936,34.352],[78.282,34.654],[77.799,35.496],[77.049,35.11],[76.594,34.736],[75.606,34.503],[75.348,34.573],[75.375,34.371],[76.74,33.197],[77.349,32.867],[77.721,33.013],[78.009,32.61],[78.39,32.527]]]},"properties":{"name":"Ladakh","slug":"ladakh","type":"Union Territory"}},
{"type":"Feature","geometry":{"type":"Polygon","coordinates":[[[76.815,30.789],[76.704,30.781],[76.776,30.677],[76.827,30.681],[76.815,30.789]]]},"properties":{"name":"Chandigarh","slug":"chandigarh","type":"Union Territory"}},
{"type":"Feature","geometry":{"type":"Polygon","coordinates":[[[77.327,28.52],[77.201,28.877],[76.937,28.815],[76.873,28.519],[77.327,28.52]]]},"properties":{"name":"Delhi","slug":"delhi","type":"Union Territory"}},
{"type":"Feature","geometry":{"type":"Polygon","coordinates":[[[78.39,32.527],[78.009,32.61],[77.721,33.013],[77.349,32.867],[76.74,33.197],[76.294,33.148],[75.972,32.911],[75.847,32.517],[75.639,32.147],[75.88,31.972],[76.158,31.339],[76.561,31.277],[76.768,30.908],[77.148,30.539],[77.585,30.383],[77.813,30.521],[77.806,31.051],[78.284,31.29],[78.869,31.315],[78.735,31.958],[78.39,32.527]]]},"properties":{"name":"Himachal Pradesh","slug":"himachal-pradesh","type":"Union Territory"}},
{"type":"Feature","geometry":{"type":"Polygon","coordinates":[[[77.201,28.877],[77.065,29.57],[77.585,30.383],[77.148,30.539],[76.768,30.908],[76.815,30.789],[76.827,30.681],[76.625,30.143],[76.226,29.869],[75.238,29.749],[74.517,29.947],[74.613,29.333],[75.328,29.296],[75.594,28.643],[76.026,28.262],[76.857,28.229],[76.941,27.852],[77.281,27.809],[77.526,27.974],[77.327,28.52],[76.873,28.519],[76.937,28.815],[77.201,28.877]]]},"properties":{"name":"Haryana","slug":"haryana","type":"State"}},
{"type":"Feature","geometry":{"type":"Polygon","coordinates":[[[75.348,34.573],[74.3,34.765],[73.961,34.653],[74.15,33.507],[73.994,33.242],[74.658,32.519],[75.293,32.326],[75.847,32.517],[75.972,32.911],[76.294,33.148],[76.74,33.197],[75.375,34.371],[75.348,34.573]]]},"properties":{"name":"Jammu and Kashmir","slug":"jammu-and-kashmir","type":"Union Territory"}},
{"type":"Feature","geometry":{"type":"Polygon","coordinates":[[[80.231,13.468],[80.053,15.074],[80.293,15.711],[80.647,15.895],[80.979,15.758],[81.239,16.264],[81.762,16.329],[82.259,16.56],[82.36,17.096],[83.198,17.609],[83.654,18.07],[84.104,18.293],[84.77,19.121],[84.318,18.809],[83.902,18.806],[83.613,19.13],[82.33,18.044],[81.759,17.909],[81.47,17.42],[80.893,17.156],[80.506,16.792],[80.22,17.033],[79.882,16.703],[79.266,16.57],[79.233,16.331],[78.734,16.03],[78.5,16.094],[78.087,15.833],[77.446,15.953],[77.034,15.874],[77.128,15.132],[76.822,14.921],[76.908,14.258],[77.257,14.334],[77.443,13.702],[77.879,13.917],[78.375,13.58],[78.516,13.089],[78.23,12.76],[78.645,12.992],[79.162,13.045],[79.45,13.331],[79.816,13.295],[80.231,13.468]]]},"properties":{"name":"Andhra Pradesh","slug":"andhra-pradesh","type":"State"}},
{"type":"Feature","geometry":{"type":"Polygon","coordinates":[[[74.894,12.751],[75.197,12.058],[75.724,11.362],[75.923,10.784],[76.346,9.922],[76.325,9.452],[76.553,8.903],[77.11,8.284],[77.279,8.526],[77.165,9.001],[77.399,9.5],[77.188,9.613],[77.277,10.21],[76.928,10.236],[76.89,10.78],[76.409,11.437],[76.416,11.667],[75.846,11.951],[74.894,12.751]]]},"properties":{"name":"Kerala","slug":"kerala","type":"State"}},
{"type":"Feature","geometry":{"type":"Polygon","coordinates":[[[73.053,8.257],[73.067,8.269],[73.08,8.293],[73.075,8.306],[73.056,8.275],[73.053,8.257]]]},"properties":{"name":"Lakshadweep","slug":"lakshadweep","type":"Union Territory"}},
{"type":"Feature","geometry":{"type":"Polygon","coordinates":[[[87.479,21.608],[87.191,21.956],[86.687,22.218],[86.04,22.557],[85.974,22.105],[85.425,22.164],[84.908,22.422],[84.148,22.387],[83.97,22.539],[83.605,22.196],[83.198,21.173],[82.668,21.155],[82.34,20.556],[82.381,19.886],[81.94,20.105],[82.225,19.015],[81.394,17.807],[81.759,17.909],[82.33,18.044],[83.613,19.13],[83.902,18.806],[84.318,18.809],[84.77,19.121],[85.226,19.508],[86.279,19.919],[86.75,20.313],[86.975,20.7],[86.86,21.237],[87.479,21.608]]]},"properties":{"name":"Odisha","slug":"odisha","type":"State"}},
{"type":"Feature","geometry":{"type":"Polygon","coordinates":[[[73.166,20.115],[73.05,20.33],[72.947,20.127],[73.166,20.115]]]},"properties":{"name":"Dadra and Nagar Haveli and Daman and Diu","slug":"dadra-and-nagar-haveli-and-daman-and-diu","type":"Union Territory"}},
{"type":"Feature","geometry":{"type":"Polygon","coordinates":[[[74.894,12.751],[75.846,11.951],[76.416,11.667],[76.821,11.626],[77.434,11.812],[77.609,12.673],[77.801,12.857],[78.23,12.76],[78.516,13.089],[78.375,13.58],[77.879,13.917],[77.443,13.702],[77.257,14.334],[76.908,14.258],[76.822,14.921],[77.128,15.132],[77.034,15.874],[77.446,15.953],[77.412,17.631],[77.62,17.926],[77.551,18.308],[76.893,18.144],[76.21,17.389],[75.647,17.091],[74.292,16.528],[74.47,16.11],[74.186,15.766],[74.101,15.64],[74.304,15.289],[74.097,14.89],[74.382,14.495],[74.671,13.668],[74.894,12.751]]]},"properties":{"name":"Karnataka","slug":"karnataka","type":"State"}},
{"type":"Feature","geometry":{"type":"Polygon","coordinates":[[[73.679,15.711],[73.932,15.397],[74.097,14.89],[74.304,15.289],[74.101,15.64],[74.104,15.645],[73.679,15.711]]]},"properties":{"name":"Goa","slug":"goa","type":"State"}},
{"type":"Feature","geometry":{"type":"Polygon","coordinates":[[[93.016,13.336],[92.857,13.358],[92.74,12.78],[92.695,12.215],[92.99,12.539],[92.886,12.942],[93.016,13.336]]]},"properties":{"name":"Andaman and Nicobar","slug":"andaman-and-nicobar","type":"Union Territory"}},
{"type":"Feature","geometry":{"type":"Polygon","coordinates":[[[89.86,26.714],[89.688,26.195],[89.806,25.441],[90.136,25.96],[90.975,25.944],[91.251,25.738],[91.582,26.027],[92.215,25.919],[92.79,25.349],[92.386,25.006],[92.139,24.545],[92.298,24.238],[92.489,24.133],[93.018,24.399],[93.449,25.302],[93.336,25.538],[94.487,26.677],[95.176,27.033],[95.904,27.276],[95.776,27.717],[95.313,27.896],[93.983,27.328],[93.695,27.006],[92.815,27.051],[92.073,26.921],[91.672,26.802],[90.74,26.772],[90.346,26.89],[89.86,26.714]]]},"properties":{"name":"Assam","slug":"assam","type":"State"}},
{"type":"Feature","geometry":{"type":"Polygon","coordinates":[[[94.655,25.445],[93.803,25.544],[93.449,25.302],[93.018,24.399],[93.312,24.033],[94.128,23.876],[94.708,25.049],[94.655,25.445]]]},"properties":{"name":"Manipur","slug":"manipur","type":"State"}},
{"type":"Feature","geometry":{"type":"Polygon","coordinates":[[[95.246,26.655],[95.176,27.033],[94.487,26.677],[93.336,25.538],[93.449,25.302],[93.803,25.544],[94.655,25.445],[95.132,26.041],[95.06,26.474],[95.246,26.655]]]},"properties":{"name":"Nagaland","slug":"nagaland","type":"State"}},
{"type":"Feature","geometry":{"type":"Polygon","coordinates":[[[92.386,25.006],[92.79,25.349],[92.215,25.919],[91.582,26.027],[91.251,25.738],[90.975,25.944],[90.136,25.96],[89.806,25.441],[90.439,25.158],[92.05,25.169],[92.386,25.006]]]},"properties":{"name":"Meghalaya","slug":"meghalaya","type":"State"}},
{"type":"Feature","geometry":{"type":"Polygon","coordinates":[[[75.293,32.326],[74.51,31.713],[74.633,31.035],[73.899,30.435],[73.933,30.222],[73.916,29.98],[74.517,29.947],[75.238,29.749],[76.226,29.869],[76.625,30.143],[76.827,30.681],[76.776,30.677],[76.704,30.781],[76.815,30.789],[76.768,30.908],[76.561,31.277],[76.158,31.339],[75.88,31.972],[75.639,32.147],[75.847,32.517],[75.293,32.326]]]},"properties":{"name":"Punjab","slug":"punjab","type":"State"}},
{"type":"Feature","geometry":{"type":"Polygon","coordinates":[[[71.048,24.688],[71.948,24.663],[72.897,24.361],[73.362,23.784],[74.323,23.036],[74.939,23.687],[74.807,24.736],[75.759,24.777],[75.805,24.119],[76.23,24.278],[76.767,24.16],[76.913,25.309],[76.478,25.72],[76.908,26.099],[78.079,26.683],[78.2,26.824],[77.705,26.93],[77.281,27.809],[76.941,27.852],[76.857,28.229],[76.026,28.262],[75.594,28.643],[75.328,29.296],[74.613,29.333],[74.517,29.947],[73.916,29.98],[73.933,30.222],[73.382,29.934],[72.903,29.029],[72.342,28.752],[71.87,27.963],[70.737,27.729],[70.404,28.025],[69.568,27.175],[69.47,26.804],[70.157,26.471],[70.078,26.072],[70.265,25.707],[70.652,25.423],[71.048,24.688]]]},"properties":{"name":"Rajasthan","slug":"rajasthan","type":"State"}},
{"type":"Feature","geometry":{"type":"Polygon","coordinates":[[[80.071,28.83],[79.444,28.85],[78.907,29.388],[78.381,29.762],[77.831,29.66],[77.585,30.383],[77.065,29.57],[77.201,28.877],[77.327,28.52],[77.526,27.974],[77.281,27.809],[77.705,26.93],[78.2,26.824],[78.936,26.694],[79.061,26.355],[78.715,25.626],[78.371,25.553],[78.169,24.865],[78.229,24.533],[78.826,24.23],[78.955,24.393],[78.516,25.266],[79.468,25.104],[80.284,25.414],[80.779,24.971],[81.585,25.08],[82.424,24.648],[82.772,24.668],[82.801,23.999],[83.337,24.14],[83.523,24.53],[83.384,25.236],[84.239,25.648],[83.993,26.241],[84.246,26.757],[83.829,27.378],[83.29,27.371],[81.853,27.867],[80.587,28.65],[80.071,28.83]]]},"properties":{"name":"Uttar Pradesh","slug":"uttar-pradesh","type":"State"}},
{"type":"Feature","geometry":{"type":"Polygon","coordinates":[[[80.071,28.83],[80.402,29.73],[80.985,30.237],[80.191,30.568],[80.194,30.759],[79.565,30.949],[79.107,31.403],[78.869,31.315],[78.284,31.29],[77.806,31.051],[77.813,30.521],[77.585,30.383],[77.831,29.66],[78.381,29.762],[78.907,29.388],[79.444,28.85],[80.071,28.83]]]},"properties":{"name":"Uttarakhand","slug":"uttarakhand","type":"State"}},
{"type":"Feature","geometry":{"type":"Polygon","coordinates":[[[83.97,22.539],[84.148,22.387],[84.908,22.422],[85.425,22.164],[85.974,22.105],[86.04,22.557],[86.687,22.218],[86.749,22.545],[85.83,23.261],[86.459,23.639],[87.08,23.815],[87.662,24.186],[87.895,24.67],[87.784,25.214],[87.523,25.324],[87.117,24.971],[87.05,24.597],[86.098,24.69],[84.961,24.348],[84.472,24.307],[83.918,24.544],[83.523,24.53],[83.337,24.14],[83.522,24.066],[84.115,22.999],[83.97,22.539]]]},"properties":{"name":"Jharkhand","slug":"jharkhand","type":"State"}},
{"type":"Feature","geometry":{"type":"Polygon","coordinates":[[[88.756,27.149],[88.357,27.085],[88.001,27.248],[88.094,26.537],[88.297,26.336],[87.831,26.011],[88.046,25.669],[87.784,25.214],[87.895,24.67],[87.662,24.186],[87.08,23.815],[86.459,23.639],[85.83,23.261],[86.749,22.545],[86.687,22.218],[87.191,21.956],[87.479,21.608],[87.948,21.825],[88.254,21.622],[89.052,21.654],[89.05,22.275],[88.741,23.437],[88.567,23.674],[88.734,24.231],[88.145,24.486],[88.456,25.188],[88.452,25.574],[88.085,25.888],[88.44,26.37],[89.55,26.005],[89.688,26.195],[89.86,26.714],[88.858,26.961],[88.756,27.149]]]},"properties":{"name":"West Bengal","slug":"west-bengal","type":"State"}},
{"type":"Feature","geometry":{"type":"Polygon","coordinates":[[[83.829,27.378],[84.246,26.757],[83.993,26.241],[84.239,25.648],[83.384,25.236],[83.523,24.53],[83.918,24.544],[84.472,24.307],[84.961,24.348],[86.098,24.69],[87.05,24.597],[87.117,24.971],[87.523,25.324],[87.784,25.214],[88.046,25.669],[87.831,26.011],[88.297,26.336],[88.094,26.537],[87.287,26.36],[87.016,26.555],[86.366,26.574],[85.293,26.741],[84.685,27.041],[84.61,27.299],[84.091,27.491],[83.829,27.378]]]},"properties":{"name":"Bihar","slug":"bihar","type":"State"}},
{"type":"Feature","geometry":{"type":"Polygon","coordinates":[[[80.27,18.714],[80.938,18.086],[81.394,17.807],[82.225,19.015],[81.94,20.105],[82.381,19.886],[82.34,20.556],[82.668,21.155],[83.198,21.173],[83.605,22.196],[83.97,22.539],[84.115,22.999],[83.522,24.066],[83.337,24.14],[82.801,23.999],[82.532,23.775],[81.778,23.802],[82.19,23.289],[81.766,22.664],[81.123,22.401],[80.731,21.714],[80.679,21.351],[80.485,21.168],[80.622,20.601],[80.531,20.135],[80.576,19.392],[80.272,18.979],[80.27,18.714]]]},"properties":{"name":"Chhattisgarh","slug":"chhattisgarh","type":"State"}},
{"type":"Feature","geometry":{"type":"Polygon","coordinates":[[[80.679,21.351],[80.731,21.714],[81.123,22.401],[81.766,22.664],[82.19,23.289],[81.778,23.802],[82.532,23.775],[82.801,23.999],[82.772,24.668],[82.424,24.648],[81.585,25.08],[80.779,24.971],[80.284,25.414],[79.468,25.104],[78.516,25.266],[78.955,24.393],[78.826,24.23],[78.229,24.533],[78.169,24.865],[78.371,25.553],[78.715,25.626],[79.061,26.355],[78.936,26.694],[78.2,26.824],[78.079,26.683],[76.908,26.099],[76.478,25.72],[76.913,25.309],[76.767,24.16],[76.23,24.278],[75.805,24.119],[75.759,24.777],[74.807,24.736],[74.939,23.687],[74.323,23.036],[74.458,22.804],[74.056,22.294],[74.129,21.952],[75.312,21.381],[76.083,21.368],[76.187,21.086],[76.614,21.202],[76.794,21.577],[77.333,21.774],[77.578,21.384],[78.413,21.606],[78.696,21.475],[79.413,21.69],[79.552,21.55],[80.187,21.639],[80.679,21.351]]]},"properties":{"name":"Madhya Pradesh","slug":"madhya-pradesh","type":"State"}},
{"type":"Feature","geometry":{"type":"Polygon","coordinates":[[[79.849,10.98],[79.737,10.986],[79.85,10.769],[79.849,10.98]]]},"properties":{"name":"Puducherry","slug":"puducherry","type":"Union Territory"}},
{"type":"Feature","geometry":{"type":"Polygon","coordinates":[[[79.85,10.769],[79.737,10.986],[79.849,10.98],[79.813,11.832],[79.848,11.954],[80.229,12.69],[80.342,13.361],[80.231,13.468],[79.816,13.295],[79.45,13.331],[79.162,13.045],[78.645,12.992],[78.23,12.76],[77.801,12.857],[77.609,12.673],[77.434,11.812],[76.821,11.626],[76.416,11.667],[76.409,11.437],[76.89,10.78],[76.928,10.236],[77.277,10.21],[77.188,9.613],[77.399,9.5],[77.165,9.001],[77.279,8.526],[77.11,8.284],[77.518,8.078],[78.06,8.385],[78.192,8.891],[78.421,9.105],[78.98,9.269],[78.996,9.683],[79.391,10.306],[79.838,10.323],[79.85,10.769]]]},"properties":{"name":"Tamil Nadu","slug":"tamil-nadu","type":"State"}},
{"type":"Feature","geometry":{"type":"Polygon","coordinates":[[[71.048,24.688],[71.044,24.4],[70.547,24.418],[69.716,24.173],[69.559,24.273],[68.728,24.266],[68.724,23.965],[68.165,23.857],[68.641,23.19],[69.236,22.849],[69.665,22.759],[70.251,22.971],[70.177,22.573],[69.009,22.197],[70.127,21.095],[70.719,20.74],[71.025,20.739],[72.015,21.156],[72.254,21.531],[72.037,21.823],[72.333,22.27],[72.59,22.278],[72.543,21.697],[72.814,21.117],[72.881,20.563],[72.709,20.078],[72.947,20.127],[73.05,20.33],[73.166,20.115],[73.476,20.679],[73.909,20.776],[73.695,21.123],[73.809,21.836],[74.129,21.952],[74.056,22.294],[74.458,22.804],[74.323,23.036],[73.362,23.784],[72.897,24.361],[71.948,24.663],[71.048,24.688]]]},"properties":{"name":"Gujarat","slug":"gujarat","type":null}},
{"type":"Feature","geometry":{"type":"Polygon","coordinates":[[[95.246,26.655],[96.061,27.217],[96.666,27.339],[97.335,27.938],[97.323,28.218],[96.603,28.46],[96.436,29.051],[96.035,29.447],[95.42,29.054],[94.623,29.312],[93.902,28.803],[93.207,28.591],[92.664,27.949],[91.978,27.73],[92.073,26.921],[92.815,27.051],[93.695,27.006],[93.983,27.328],[95.313,27.896],[95.776,27.717],[95.904,27.276],[95.176,27.033],[95.246,26.655]]]},"properties":{"name":"Arunachal Pradesh","slug":"arunachal-pradesh","type":"State"}},
{"type":"Feature","geometry":{"type":"Polygon","coordinates":[[[93.312,24.033],[93.018,24.399],[92.489,24.133],[92.298,24.238],[92.246,23.684],[92.561,22.048],[92.965,22.004],[93.162,22.36],[93.079,22.718],[93.366,23.133],[93.312,24.033]]]},"properties":{"name":"Mizoram","slug":"mizoram","type":"State"}},
{"type":"Feature","geometry":{"type":"Polygon","coordinates":[[[92.246,23.684],[92.298,24.238],[92.139,24.545],[91.877,24.195],[91.367,24.094],[91.16,23.661],[91.315,23.104],[91.62,22.98],[91.938,23.505],[92.246,23.684]]]},"properties":{"name":"Tripura","slug":"tripura","type":"State"}},
{"type":"Feature","geometry":{"type":"Polygon","coordinates":[[[74.104,15.645],[74.186,15.766],[74.47,16.11],[74.292,16.528],[75.647,17.091],[76.21,17.389],[76.893,18.144],[77.551,18.308],[78.384,19.685],[78.848,19.725],[79.198,19.462],[79.735,19.603],[79.931,19.483],[79.96,18.867],[80.27,18.714],[80.272,18.979],[80.576,19.392],[80.531,20.135],[80.622,20.601],[80.485,21.168],[80.679,21.351],[80.187,21.639],[79.552,21.55],[79.413,21.69],[78.696,21.475],[78.413,21.606],[77.578,21.384],[77.333,21.774],[76.794,21.577],[76.614,21.202],[76.187,21.086],[76.083,21.368],[75.312,21.381],[74.129,21.952],[73.809,21.836],[73.695,21.123],[73.909,20.776],[73.476,20.679],[73.166,20.115],[72.947,20.127],[72.709,20.078],[72.871,18.683],[73.156,17.622],[73.338,16.46],[73.679,15.711],[74.104,15.645]]]},"properties":{"name":"Maharashtra","slug":"maharashtra","type":"State"}}
]}